{"type": "FeatureCollection", "features": [ {"type": "Feature", "properties": {"norad_id": 34117, "name": "COSMOS 2251 DEB", "group": "cosmos-2251-debris", "lat": 60.46252057629292, "lon": 12.231742364561232, "alt_km": 713.5649997331111, "timestamp": "2025-12-13T18:50:04.824057+00:00", "meta": {"OBJECT_NAME": "COSMOS 2251 DEB", "OBJECT_ID": "1993-036KN", "EPOCH": "2025-12-13T00:11:49.543584", "MEAN_MOTION": 14.40013089, "ECCENTRICITY": 0.00545368, "INCLINATION": 74.0405, "RA_OF_ASC_NODE": 343.3327, "ARG_OF_PERICENTER": 59.6265, "MEAN_ANOMALY": 301.0265, "EPHEMERIS_TYPE": 0, "CLASSIFICATION_TYPE": "U", "NORAD_CAT_ID": 34117, "ELEMENT_SET_NO": 999, "REV_AT_EPOCH": 88127, "BSTAR": 0.0010203583, "MEAN_MOTION_DOT": 3.247e-05, "MEAN_MOTION_DDOT": 0}, "tle": {"line1": "1 34117U 93036KN  25347.00821231  .00003247  00000+0  10204-2 0  9999", "line2": "2 34117  74.0405 343.3327 0054536  59.6265 301.0265 14.40013089881272"}}, "geometry": {"type": "Point", "coordinates": [12.231742364561232, 60.46252057629292]}}, {"type": "Feature", "properties": {"norad_id": 34118, "name": "COSMOS 2251 DEB", "group": "cosmos-2251-debris", "lat": -21.370979657167705, "lon": -119.277202579723, "alt_km": 597.0529328591037, "timestamp": "2025-12-13T18:50:04.824067+00:00", "meta": {"OBJECT_NAME": "COSMOS 2251 DEB", "OBJECT_ID": "1993-036KP", "EPOCH": "2025-12-13T03:11:10.081248", "MEAN_MOTION": 14.93977596, "ECCENTRICITY": 0.00600179, "INCLINATION": 73.9521, "RA_OF_ASC_NODE": 248.5092, "ARG_OF_PERICENTER": 78.7962, "MEAN_ANOMALY": 354.3585, "EPHEMERIS_TYPE": 0, "CLASSIFICATION_TYPE": "U", "NORAD_CAT_ID": 34118, "ELEMENT_SET_NO": 999, "REV_AT_EPOCH": 89182, "BSTAR": 0.0027070351, "MEAN_MOTION_DOT": 0.00029978, "MEAN_MOTION_DDOT": 0}, "tle": {"line1": "1 34118U 93036KP  25347.13275557  .00029978  00000+0  27070-2 0  9996", "line2": "2 34118  73.9521 248.5092 0060017  78.7962 354.3585 14.93977596891820"}}, "geometry": {"type": "Point", "coordinates": [-119.277202579723, -21.370979657167705]}}, {"type": "Feature", "properties": {"norad_id": 34120, "name": "COSMOS 2251 DEB", "group": "cosmos-2251-debris", "lat": 26.8408677074293, "lon": -137.2357144127857, "alt_km": 768.1475536067273, "timestamp": "2025-12-13T18:50:04.824078+00:00", "meta": {"OBJECT_NAME": "COSMOS 2251 DEB", "OBJECT_ID": "1993-036KR", "EPOCH": "2025-12-13T02:08:24.505728", "MEAN_MOTION": 13.98684167, "ECCENTRICITY": 0.01819742, "INCLINATION": 73.991, "RA_OF_ASC_NODE": 215.6154, "ARG_OF_PERICENTER": 43.2182, "MEAN_ANOMALY": 84.1834, "EPHEMERIS_TYPE": 0, "CLASSIFICATION_TYPE": "U", "NORAD_CAT_ID": 34120, "ELEMENT_SET_NO": 999, "REV_AT_EPOCH": 85985, "BSTAR": 0.00047043169, "MEAN_MOTION_DOT": 7.55e-06, "MEAN_MOTION_DDOT": 0}, "tle": {"line1": "1 34120U 93036KR  25347.08917252  .00000755  00000+0  47043-3 0  9993", "line2": "2 34120  73.9910 215.6154 0181974  43.2182  84.1834 13.98684167859851"}}, "geometry": {"type": "Point", "coordinates": [-137.2357144127857, 26.8408677074293]}}, {"type": "Feature", "properties": {"norad_id": 34121, "name": "COSMOS 2251 DEB", "group": "cosmos-2251-debris", "lat": -31.79080478001853, "lon": -74.37148855703195, "alt_km": 915.5542604845105, "timestamp": "2025-12-13T18:50:04.824088+00:00", "meta": {"OBJECT_NAME": "COSMOS 2251 DEB", "OBJECT_ID": "1993-036KS", "EPOCH": "2025-12-13T07:44:20.151744", "MEAN_MOTION": 13.91933519, "ECCENTRICITY": 0.02403117, "INCLINATION": 73.9924, "RA_OF_ASC_NODE": 96.1715, "ARG_OF_PERICENTER": 301.4939, "MEAN_ANOMALY": 118.6007, "EPHEMERIS_TYPE": 0, "CLASSIFICATION_TYPE": "U", "NORAD_CAT_ID": 34121, "ELEMENT_SET_NO": 999, "REV_AT_EPOCH": 85133, "BSTAR": 0.0017748106, "MEAN_MOTION_DOT": 2.84e-05, "MEAN_MOTION_DDOT": 0}, "tle": {"line1": "1 34121U 93036KS  25347.32245546  .00002840  00000+0  17748-2 0  9996", "line2": "2 34121  73.9924  96.1715 0240311 301.4939 118.6007 13.91933519851333"}}, "geometry": {"type": "Point", "coordinates": [-74.37148855703195, -31.79080478001853]}}, {"type": "Feature", "properties": {"norad_id": 34122, "name": "COSMOS 2251 DEB", "group": "cosmos-2251-debris", "lat": 20.141411917294015, "lon": 122.6504899845946, "alt_km": 617.5966576297506, "timestamp": "2025-12-13T18:50:04.824099+00:00", "meta": {"OBJECT_NAME": "COSMOS 2251 DEB", "OBJECT_ID": "1993-036KT", "EPOCH": "2025-12-13T03:10:08.925600", "MEAN_MOTION": 14.65059729, "ECCENTRICITY": 0.00843328, "INCLINATION": 74.0357, "RA_OF_ASC_NODE": 117.8791, "ARG_OF_PERICENTER": 14.632, "MEAN_ANOMALY": 165.0964, "EPHEMERIS_TYPE": 0, "CLASSIFICATION_TYPE": "U", "NORAD_CAT_ID": 34122, "ELEMENT_SET_NO": 999, "REV_AT_EPOCH": 88690, "BSTAR": 0.0017698321, "MEAN_MOTION_DOT": 9.989e-05, "MEAN_MOTION_DDOT": 0}, "tle": {"line1": "1 34122U 93036KT  25347.13204775  .00009989  00000+0  17698-2 0  9990", "line2": "2 34122  74.0357 117.8791 0084332  14.6320 165.0964 14.65059729886900"}}, "geometry": {"type": "Point", "coordinates": [122.6504899845946, 20.141411917294015]}}, {"type": "Feature", "properties": {"norad_id": 34127, "name": "COSMOS 2251 DEB", "group": "cosmos-2251-debris", "lat": 14.720698362399823, "lon": -142.2966329960789, "alt_km": 767.9762352230418, "timestamp": "2025-12-13T18:50:04.824109+00:00", "meta": {"OBJECT_NAME": "COSMOS 2251 DEB", "OBJECT_ID": "1993-036KY", "EPOCH": "2025-12-13T04:54:27.791712", "MEAN_MOTION": 14.31553312, "ECCENTRICITY": 0.01149401, "INCLINATION": 74.1797, "RA_OF_ASC_NODE": 43.0237, "ARG_OF_PERICENTER": 243.0514, "MEAN_ANOMALY": 173.4328, "EPHEMERIS_TYPE": 0, "CLASSIFICATION_TYPE": "U", "NORAD_CAT_ID": 34127, "ELEMENT_SET_NO": 999, "REV_AT_EPOCH": 86778, "BSTAR": 0.0026180349, "MEAN_MOTION_DOT": 7.47e-05, "MEAN_MOTION_DDOT": 0}, "tle": {"line1": "1 34127U 93036KY  25347.20448833  .00007470  00000+0  26180-2 0  9997", "line2": "2 34127  74.1797  43.0237 0114940 243.0514 173.4328 14.31553312867783"}}, "geometry": {"type": "Point", "coordinates": [-142.2966329960789, 14.720698362399823]}}, {"type": "Feature", "properties": {"norad_id": 34128, "name": "COSMOS 2251 DEB", "group": "cosmos-2251-debris", "lat": -73.64471925546319, "lon": -143.3212594246953, "alt_km": 582.3285776796511, "timestamp": "2025-12-13T18:50:04.824120+00:00", "meta": {"OBJECT_NAME": "COSMOS 2251 DEB", "OBJECT_ID": "1993-036KZ", "EPOCH": "2025-12-13T06:58:22.662912", "MEAN_MOTION": 15.01199276, "ECCENTRICITY": 0.00259593, "INCLINATION": 73.999, "RA_OF_ASC_NODE": 295.5989, "ARG_OF_PERICENTER": 47.7103, "MEAN_ANOMALY": 75.9767, "EPHEMERIS_TYPE": 0, "CLASSIFICATION_TYPE": "U", "NORAD_CAT_ID": 34128, "ELEMENT_SET_NO": 999, "REV_AT_EPOCH": 89175, "BSTAR": 0.0031904064, "MEAN_MOTION_DOT": 0.00041446, "MEAN_MOTION_DDOT": 0}, "tle": {"line1": "1 34128U 93036KZ  25347.29054008  .00041446  00000+0  31904-2 0  9995", "line2": "2 34128  73.9990 295.5989 0025959  47.7103  75.9767 15.01199276891758"}}, "geometry": {"type": "Point", "coordinates": [-143.3212594246953, -73.64471925546319]}}, {"type": "Feature", "properties": {"norad_id": 34129, "name": "COSMOS 2251 DEB", "group": "cosmos-2251-debris", "lat": 73.14407993666374, "lon": 86.60322600176364, "alt_km": 616.7855736453203, "timestamp": "2025-12-13T18:50:04.824130+00:00", "meta": {"OBJECT_NAME": "COSMOS 2251 DEB", "OBJECT_ID": "1993-036LA", "EPOCH": "2025-12-13T05:23:26.615040", "MEAN_MOTION": 14.75754516, "ECCENTRICITY": 0.003293, "INCLINATION": 74.0355, "RA_OF_ASC_NODE": 338.5776, "ARG_OF_PERICENTER": 59.9083, "MEAN_ANOMALY": 300.5348, "EPHEMERIS_TYPE": 0, "CLASSIFICATION_TYPE": "U", "NORAD_CAT_ID": 34129, "ELEMENT_SET_NO": 999, "REV_AT_EPOCH": 61305, "BSTAR": 0.0023290447, "MEAN_MOTION_DOT": 0.00016093, "MEAN_MOTION_DDOT": 0}, "tle": {"line1": "1 34129U 93036LA  25347.22461360  .00016093  00000+0  23290-2 0  9991", "line2": "2 34129  74.0355 338.5776 0032930  59.9083 300.5348 14.75754516613058"}}, "geometry": {"type": "Point", "coordinates": [86.60322600176364, 73.14407993666374]}}, {"type": "Feature", "properties": {"norad_id": 34136, "name": "COSMOS 2251 DEB", "group": "cosmos-2251-debris", "lat": -73.7331882090865, "lon": -60.31550650203014, "alt_km": 649.6777601564936, "timestamp": "2025-12-13T18:50:04.824141+00:00", "meta": {"OBJECT_NAME": "COSMOS 2251 DEB", "OBJECT_ID": "1993-036LH", "EPOCH": "2025-12-13T06:36:34.788096", "MEAN_MOTION": 14.80090295, "ECCENTRICITY": 0.0085682, "INCLINATION": 74.0211, "RA_OF_ASC_NODE": 41.5759, "ARG_OF_PERICENTER": 164.4278, "MEAN_ANOMALY": 268.5894, "EPHEMERIS_TYPE": 0, "CLASSIFICATION_TYPE": "U", "NORAD_CAT_ID": 34136, "ELEMENT_SET_NO": 999, "REV_AT_EPOCH": 90018, "BSTAR": 0.00072156655, "MEAN_MOTION_DOT": 5.792e-05, "MEAN_MOTION_DDOT": 0}, "tle": {"line1": "1 34136U 93036LH  25347.27540264  .00005792  00000+0  72157-3 0  9996", "line2": "2 34136  74.0211  41.5759 0085682 164.4278 268.5894 14.80090295900184"}}, "geometry": {"type": "Point", "coordinates": [-60.31550650203014, -73.7331882090865]}}, {"type": "Feature", "properties": {"norad_id": 34139, "name": "COSMOS 2251 DEB", "group": "cosmos-2251-debris", "lat": -73.8762650210859, "lon": 154.20329557752635, "alt_km": 685.6982805364187, "timestamp": "2025-12-13T18:50:04.824151+00:00", "meta": {"OBJECT_NAME": "COSMOS 2251 DEB", "OBJECT_ID": "1993-036LL", "EPOCH": "2025-12-13T05:01:24.161952", "MEAN_MOTION": 14.59078314, "ECCENTRICITY": 0.00425415, "INCLINATION": 74.0303, "RA_OF_ASC_NODE": 253.1683, "ARG_OF_PERICENTER": 323.9942, "MEAN_ANOMALY": 162.6851, "EPHEMERIS_TYPE": 0, "CLASSIFICATION_TYPE": "U", "NORAD_CAT_ID": 34139, "ELEMENT_SET_NO": 999, "REV_AT_EPOCH": 88156, "BSTAR": 0.0021619651, "MEAN_MOTION_DOT": 0.00010282, "MEAN_MOTION_DDOT": 0}, "tle": {"line1": "1 34139U 93036LL  25347.20930743  .00010282  00000+0  21620-2 0  9995", "line2": "2 34139  74.0303 253.1683 0042541 323.9942 162.6851 14.59078314881564"}}, "geometry": {"type": "Point", "coordinates": [154.20329557752635, -73.8762650210859]}}]}